JILIN-1 GAOFEN 3A       
1 44312U 19032C   26068.74542089  .00016264  00000+0  55381-3 0  9993
2 44312  44.9746 183.2861 0002618 111.2900 248.8263 15.30271310372592
STARLINK-35708          
1 66277U 25247N   26068.61467776  .00015719  00000+0  54182-3 0  9999
2 66277  53.1579 191.6852 0000826 112.4942 247.6146 15.30194602 21072
